[{"OBJECT_NAME":"STARLINK-4318","OBJECT_ID":"2022-077AV","EPOCH":"2026-03-09T10:48:22.686048","MEAN_MOTION":15.0127407,"ECCENTRICITY":0.00012121,"INCLINATION":97.6032,"RA_OF_ASC_NODE":249.9879,"ARG_OF_PERICENTER":113.2283,"MEAN_ANOMALY":246.907,"EPHEMERIS_TYPE":0,"CLASSIFICATION_TYPE":"U","NORAD_CAT_ID":53086,"ELEMENT_SET_NO":999,"REV_AT_EPOCH":20088,"BSTAR":0.0001256365,"MEAN_MOTION_DOT":1.556e-5,"MEAN_MOTION_DDOT":0},{"OBJECT_NAME":"CZ-6A DEB","OBJECT_ID":"2022-151CD","EPOCH":"2026-03-09T04:34:52.178880","MEAN_MOTION":15.04926808,"ECCENTRICITY":0.00436133,"INCLINATION":98.6267,"RA_OF_ASC_NODE":153.8749,"ARG_OF_PERICENTER":159.2339,"MEAN_ANOMALY":201.0669,"EPHEMERIS_TYPE":0,"CLASSIFICATION_TYPE":"U","NORAD_CAT_ID":54334,"ELEMENT_SET_NO":999,"REV_AT_EPOCH":17669,"BSTAR":0.0057373504,"MEAN_MOTION_DOT":0.00083812,"MEAN_MOTION_DDOT":0}]
